{
    "links": {
        "self": "http://www.neowsapp.com/rest/v1/neo/3838911?api_key=iIulBulltgU6a56xZRHN4H3l9WmuAYTsLGpBGhQ2"
    },
    "id": "3838911",
    "neo_reference_id": "3838911",
    "name": "(2019 DE2)",
    "designation": "2019 DE2",
    "nasa_jpl_url": "http://ssd.jpl.nasa.gov/sbdb.cgi?sstr=3838911",
    "absolute_magnitude_h": 24.4,
    "estimated_diameter": {
        "kilometers": {
            "estimated_diameter_min": 0.0350392641,
            "estimated_diameter_max": 0.0783501764
        },
        "meters": {
            "estimated_diameter_min": 35.0392641108,
            "estimated_diameter_max": 78.3501764334
        },
        "miles": {
            "estimated_diameter_min": 0.0217723826,
            "estimated_diameter_max": 0.0486845275
        },
        "feet": {
            "estimated_diameter_min": 114.9582192654,
            "estimated_diameter_max": 257.0543928497
        }
    },
    "is_potentially_hazardous_asteroid": false,
    "close_approach_data": [
        {
            "close_approach_date": "2019-02-11",
            "close_approach_date_full": "2019-Feb-11 08:57",
            "epoch_date_close_approach": 1549875420000,
            "relative_velocity": {
                "kilometers_per_second": "16.4508476489",
                "kilometers_per_hour": "59223.0515361793",
                "miles_per_hour": "36798.901105911"
            },
            "miss_distance": {
                "astronomical": "0.1148177175",
                "lunar": "44.6640921075",
                "kilometers": "17176485.976261725",
                "miles": "10672973.473292805"
            },
            "orbiting_body": "Earth"
        }
    ],
    "orbital_data": {
        "orbit_id": "1",
        "orbit_determination_date": "2019-03-07 14:42:12",
        "first_observation_date": "2019-02-28",
        "last_observation_date": "2019-03-07",
        "data_arc_in_days": 7,
        "observations_used": 18,
        "orbit_uncertainty": "9",
        "minimum_orbit_intersection": ".0918274",
        "jupiter_tisserand_invariant": "3.796",
        "epoch_osculation": "2458543.5",
        "eccentricity": ".5810594295234049",
        "semi_major_axis": "1.799612764887079",
        "inclination": "19.09432828942049",
        "ascending_node_longitude": "338.7492692594831",
        "orbital_period": "881.7937664249885",
        "perihelion_distance": ".7539307983587553",
        "perihelion_argument": "90.4608563140514",
        "aphelion_distance": "2.845294731415402",
        "perihelion_time": "2458475.390179572046",
        "mean_anomaly": "27.80642854107684",
        "mean_motion": ".408258726368105",
        "equinox": "J2000",
        "orbit_class": {
            "orbit_class_type": "APO",
            "orbit_class_description": "Near-Earth asteroid orbits which cross the Earth’s orbit similar to that of 1862 Apollo",
            "orbit_class_range": "a (semi-major axis) > 1.0 AU; q (perihelion) < 1.017 AU"
        }
    },
    "is_sentry_object": false
}